STARLINK-1297_new
1 15395C 20019AM  21326.16910318 -.00001017  00000-0 -68179-4 0  3261
2 15395  53.0548 347.9931 0001624  51.7710  53.1410 15.06395116    15
STARLINK-1297_old
1 25395C 20019AM  21325.11719451 -.00018101  00000-0 -12125-2 0  3259
2 25395  53.0545 352.7156 0001647  54.6290 102.5668 15.06424049    17
